COSMOS 2251 DEB         
1 33901U 93036DE  26062.52244509  .00111578  00000+0  39842-2 0  9994
2 33901  73.7707 236.7859 0029140 357.1744   2.9286 15.27925073907426
COSMOS 2251 DEB         
1 33905U 93036DJ  26062.71219455  .00001979  00000+0  68160-3 0  9990
2 33905  73.8867 166.7385 0056802  36.1630 113.7362 14.35723882888490
COSMOS 2251 DEB         
1 33906U 93036DK  26062.65880951  .00011845  00000+0  25239-2 0  9991
2 33906  74.0310 167.5299 0033924 187.0540 298.8485 14.58646875891874
COSMOS 2251 DEB         
1 33907U 93036DL  26062.55413352  .00005510  00000+0  19345-2 0  9991
2 33907  74.0675 246.7206 0112800 283.4096 139.3853 14.31686785877366
COSMOS 2251 DEB         
1 33908U 93036DM  26062.66629092  .00003741  00000+0  17876-2 0  9995
2 33908  73.8367  62.0671 0214992  70.7143 291.7110 14.08098295866120
COSMOS 2251 DEB         
1 33911U 93036DQ  26062.83781848  .00020908  00000+0  29348-2 0  9997
2 33911  74.0925   3.6252 0015901 271.7947 119.4279 14.77297446898411
COSMOS 2251 DEB         
1 33912U 93036DR  26062.62387792  .00004428  00000+0  10901-2 0  9999
2 33912  74.0348  37.2794 0008275 103.6652  16.6628 14.52501500896075
COSMOS 2251 DEB         
1 33913U 93036DS  26062.32689420  .00002705  00000+0  71260-3 0  9992
2 33913  74.0348  32.6066 0045426 117.1418  39.3045 14.48888279896246
COSMOS 2251 DEB         
1 33914U 93036DT  26062.66075307  .00000470  00000+0  39105-3 0  9992
2 33914  74.0878 241.7176 0303485 325.8087 107.1171 13.72107633851915
COSMOS 2251 DEB         
1 33915U 93036DU  26062.55894286  .00001311  00000+0  43782-3 0  9997
2 33915  74.0403 245.9573 0106121 318.0458  97.2051 14.35348454889174
COSMOS 2251 DEB         
1 33916U 93036DV  26062.65879435  .00000528  00000+0  44182-3 0  9992
2 33916  74.0488 267.6324 0323832  61.5503 359.7169 13.68692543849981
COSMOS 2251 DEB         
1 33917U 93036DW  26062.72797328  .00002113  00000+0  16678-2 0  9991
2 33917  74.1100 349.5772 0329381  71.6233 292.0404 13.69643267848427
COSMOS 2251 DEB         
1 33920U 93036DZ  26062.61274668  .00008637  00000+0  17986-2 0  9990
2 33920  74.0611 144.5764 0031757 135.3250 225.0483 14.59804639892946
COSMOS 2251 DEB         
1 33922U 93036EB  26062.23386976  .00002047  00000+0  53601-3 0  9990
2 33922  74.0495 356.7930 0020796  88.2057  38.8545 14.49832614897444
COSMOS 2251 DEB         
1 33924U 93036ED  26062.66155536  .00000806  00000+0  78045-3 0  9995
2 33924  73.9132 140.1219 0401831 161.1175 200.5339 13.50371754838316
COSMOS 2251 DEB         
1 33928U 93036EH  26062.63620252  .00001226  00000+0  33302-3 0  9992
2 33928  73.9227 260.2283 0060821 178.7876 181.3442 14.47604418898154
