[{"OBJECT_NAME":"COSMOS 2251 DEB","OBJECT_ID":"1993-036DE","EPOCH":"2026-03-03T12:32:19.255776","MEAN_MOTION":15.27925073,"ECCENTRICITY":0.002914,"INCLINATION":73.7707,"RA_OF_ASC_NODE":236.7859,"ARG_OF_PERICENTER":357.1744,"MEAN_ANOMALY":2.9286,"EPHEMERIS_TYPE":0,"CLASSIFICATION_TYPE":"U","NORAD_CAT_ID":33901,"ELEMENT_SET_NO":999,"REV_AT_EPOCH":90742,"BSTAR":0.0039842,"MEAN_MOTION_DOT":0.00111578,"MEAN_MOTION_DDOT":0},{"OBJECT_NAME":"COSMOS 2251 DEB","OBJECT_ID":"1993-036DJ","EPOCH":"2026-03-03T17:05:33.609120","MEAN_MOTION":14.35723882,"ECCENTRICITY":0.0056802,"INCLINATION":73.8867,"RA_OF_ASC_NODE":166.7385,"ARG_OF_PERICENTER":36.163,"MEAN_ANOMALY":113.7362,"EPHEMERIS_TYPE":0,"CLASSIFICATION_TYPE":"U","NORAD_CAT_ID":33905,"ELEMENT_SET_NO":999,"REV_AT_EPOCH":88849,"BSTAR":0.0006816,"MEAN_MOTION_DOT":1.979e-5,"MEAN_MOTION_DDOT":0},{"OBJECT_NAME":"COSMOS 2251 DEB","OBJECT_ID":"1993-036DK","EPOCH":"2026-03-03T15:48:41.141664","MEAN_MOTION":14.58646875,"ECCENTRICITY":0.0033924,"INCLINATION":74.031,"RA_OF_ASC_NODE":167.5299,"ARG_OF_PERICENTER":187.054,"MEAN_ANOMALY":298.8485,"EPHEMERIS_TYPE":0,"CLASSIFICATION_TYPE":"U","NORAD_CAT_ID":33906,"ELEMENT_SET_NO":999,"REV_AT_EPOCH":89187,"BSTAR":0.0025239,"MEAN_MOTION_DOT":0.00011845,"MEAN_MOTION_DDOT":0},{"OBJECT_NAME":"COSMOS 2251 DEB","OBJECT_ID":"1993-036DL","EPOCH":"2026-03-03T13:17:57.136128","MEAN_MOTION":14.31686785,"ECCENTRICITY":0.01128,"INCLINATION":74.0675,"RA_OF_ASC_NODE":246.7206,"ARG_OF_PERICENTER":283.4096,"MEAN_ANOMALY":139.3853,"EPHEMERIS_TYPE":0,"CLASSIFICATION_TYPE":"U","NORAD_CAT_ID":33907,"ELEMENT_SET_NO":999,"REV_AT_EPOCH":87736,"BSTAR":0.0019345,"MEAN_MOTION_DOT":5.51e-5,"MEAN_MOTION_DDOT":0},{"OBJECT_NAME":"COSMOS 2251 DEB","OBJECT_ID":"1993-036DM","EPOCH":"2026-03-03T15:59:27.535488","MEAN_MOTION":14.08098295,"ECCENTRICITY":0.0214992,"INCLINATION":73.8367,"RA_OF_ASC_NODE":62.0671,"ARG_OF_PERICENTER":70.7143,"MEAN_ANOMALY":291.711,"EPHEMERIS_TYPE":0,"CLASSIFICATION_TYPE":"U","NORAD_CAT_ID":33908,"ELEMENT_SET_NO":999,"REV_AT_EPOCH":86612,"BSTAR":0.0017876,"MEAN_MOTION_DOT":3.741e-5,"MEAN_MOTION_DDOT":0},{"OBJECT_NAME":"COSMOS 2251 DEB","OBJECT_ID":"1993-036DQ","EPOCH":"2026-03-03T20:06:27.516672","MEAN_MOTION":14.77297446,"ECCENTRICITY":0.0015901,"INCLINATION":74.0925,"RA_OF_ASC_NODE":3.6252,"ARG_OF_PERICENTER":271.7947,"MEAN_ANOMALY":119.4279,"EPHEMERIS_TYPE":0,"CLASSIFICATION_TYPE":"U","NORAD_CAT_ID":33911,"ELEMENT_SET_NO":999,"REV_AT_EPOCH":89841,"BSTAR":0.0029348,"MEAN_MOTION_DOT":0.00020908,"MEAN_MOTION_DDOT":0},{"OBJECT_NAME":"COSMOS 2251 DEB","OBJECT_ID":"1993-036DR","EPOCH":"2026-03-03T14:58:23.052288","MEAN_MOTION":14.525015,"ECCENTRICITY":0.0008275,"INCLINATION":74.0348,"RA_OF_ASC_NODE":37.2794,"ARG_OF_PERICENTER":103.6652,"MEAN_ANOMALY":16.6628,"EPHEMERIS_TYPE":0,"CLASSIFICATION_TYPE":"U","NORAD_CAT_ID":33912,"ELEMENT_SET_NO":999,"REV_AT_EPOCH":89607,"BSTAR":0.0010901,"MEAN_MOTION_DOT":4.428e-5,"MEAN_MOTION_DDOT":0},{"OBJECT_NAME":"COSMOS 2251 DEB","OBJECT_ID":"1993-036DS","EPOCH":"2026-03-03T07:50:43.658880","MEAN_MOTION":14.48888279,"ECCENTRICITY":0.00454262,"INCLINATION":74.0348,"RA_OF_ASC_NODE":32.6066,"ARG_OF_PERICENTER":117.1418,"MEAN_ANOMALY":39.3045,"EPHEMERIS_TYPE":0,"CLASSIFICATION_TYPE":"U","NORAD_CAT_ID":33913,"ELEMENT_SET_NO":999,"REV_AT_EPOCH":89624,"BSTAR":0.00071259954,"MEAN_MOTION_DOT":2.705e-5,"MEAN_MOTION_DDOT":0},{"OBJECT_NAME":"COSMOS 2251 DEB","OBJECT_ID":"1993-036DT","EPOCH":"2026-03-03T15:51:29.065248","MEAN_MOTION":13.72107633,"ECCENTRICITY":0.0303485,"INCLINATION":74.0878,"RA_OF_ASC_NODE":241.7176,"ARG_OF_PERICENTER":325.8087,"MEAN_ANOMALY":107.1171,"EPHEMERIS_TYPE":0,"CLASSIFICATION_TYPE":"U","NORAD_CAT_ID":33914,"ELEMENT_SET_NO":999,"REV_AT_EPOCH":85191,"BSTAR":0.00039105,"MEAN_MOTION_DOT":4.7e-6,"MEAN_MOTION_DDOT":0},{"OBJECT_NAME":"COSMOS 2251 DEB","OBJECT_ID":"1993-036DU","EPOCH":"2026-03-03T13:24:52.663104","MEAN_MOTION":14.35348454,"ECCENTRICITY":0.0106121,"INCLINATION":74.0403,"RA_OF_ASC_NODE":245.9573,"ARG_OF_PERICENTER":318.0458,"MEAN_ANOMALY":97.2051,"EPHEMERIS_TYPE":0,"CLASSIFICATION_TYPE":"U","NORAD_CAT_ID":33915,"ELEMENT_SET_NO":999,"REV_AT_EPOCH":88917,"BSTAR":0.00043782,"MEAN_MOTION_DOT":1.311e-5,"MEAN_MOTION_DDOT":0},{"OBJECT_NAME":"COSMOS 2251 DEB","OBJECT_ID":"1993-036DV","EPOCH":"2026-03-03T15:48:39.831840","MEAN_MOTION":13.68692543,"ECCENTRICITY":0.0323832,"INCLINATION":74.0488,"RA_OF_ASC_NODE":267.6324,"ARG_OF_PERICENTER":61.5503,"MEAN_ANOMALY":359.7169,"EPHEMERIS_TYPE":0,"CLASSIFICATION_TYPE":"U","NORAD_CAT_ID":33916,"ELEMENT_SET_NO":999,"REV_AT_EPOCH":84998,"BSTAR":0.00044182,"MEAN_MOTION_DOT":5.28e-6,"MEAN_MOTION_DDOT":0},{"OBJECT_NAME":"COSMOS 2251 DEB","OBJECT_ID":"1993-036DW","EPOCH":"2026-03-03T17:28:16.891392","MEAN_MOTION":13.69643267,"ECCENTRICITY":0.0329381,"INCLINATION":74.11,"RA_OF_ASC_NODE":349.5772,"ARG_OF_PERICENTER":71.6233,"MEAN_ANOMALY":292.0404,"EPHEMERIS_TYPE":0,"CLASSIFICATION_TYPE":"U","NORAD_CAT_ID":33917,"ELEMENT_SET_NO":999,"REV_AT_EPOCH":84842,"BSTAR":0.0016678,"MEAN_MOTION_DOT":2.113e-5,"MEAN_MOTION_DDOT":0},{"OBJECT_NAME":"COSMOS 2251 DEB","OBJECT_ID":"1993-036DZ","EPOCH":"2026-03-03T14:42:21.313152","MEAN_MOTION":14.59804639,"ECCENTRICITY":0.0031757,"INCLINATION":74.0611,"RA_OF_ASC_NODE":144.5764,"ARG_OF_PERICENTER":135.325,"MEAN_ANOMALY":225.0483,"EPHEMERIS_TYPE":0,"CLASSIFICATION_TYPE":"U","NORAD_CAT_ID":33920,"ELEMENT_SET_NO":999,"REV_AT_EPOCH":89294,"BSTAR":0.0017986,"MEAN_MOTION_DOT":8.637e-5,"MEAN_MOTION_DDOT":0},{"OBJECT_NAME":"COSMOS 2251 DEB","OBJECT_ID":"1993-036EB","EPOCH":"2026-03-03T05:36:46.347264","MEAN_MOTION":14.49832614,"ECCENTRICITY":0.00207966,"INCLINATION":74.0495,"RA_OF_ASC_NODE":356.793,"ARG_OF_PERICENTER":88.2057,"MEAN_ANOMALY":38.8545,"EPHEMERIS_TYPE":0,"CLASSIFICATION_TYPE":"U","NORAD_CAT_ID":33922,"ELEMENT_SET_NO":999,"REV_AT_EPOCH":89744,"BSTAR":0.00053600801,"MEAN_MOTION_DOT":2.047e-5,"MEAN_MOTION_DDOT":0},{"OBJECT_NAME":"COSMOS 2251 DEB","OBJECT_ID":"1993-036ED","EPOCH":"2026-03-03T15:52:38.383104","MEAN_MOTION":13.50371754,"ECCENTRICITY":0.0401831,"INCLINATION":73.9132,"RA_OF_ASC_NODE":140.1219,"ARG_OF_PERICENTER":161.1175,"MEAN_ANOMALY":200.5339,"EPHEMERIS_TYPE":0,"CLASSIFICATION_TYPE":"U","NORAD_CAT_ID":33924,"ELEMENT_SET_NO":999,"REV_AT_EPOCH":83831,"BSTAR":0.00078045,"MEAN_MOTION_DOT":8.06e-6,"MEAN_MOTION_DDOT":0},{"OBJECT_NAME":"COSMOS 2251 DEB","OBJECT_ID":"1993-036EH","EPOCH":"2026-03-03T15:16:07.897728","MEAN_MOTION":14.47604418,"ECCENTRICITY":0.0060821,"INCLINATION":73.9227,"RA_OF_ASC_NODE":260.2283,"ARG_OF_PERICENTER":178.7876,"MEAN_ANOMALY":181.3442,"EPHEMERIS_TYPE":0,"CLASSIFICATION_TYPE":"U","NORAD_CAT_ID":33928,"ELEMENT_SET_NO":999,"REV_AT_EPOCH":89815,"BSTAR":0.00033302,"MEAN_MOTION_DOT":1.226e-5,"MEAN_MOTION_DDOT":0}]
